QIANFAN-69              
1 62799U 25016Q   26064.94549156  .00000060  00000+0  74315-4 0  9997
2 62799  88.9666  94.3392 0017963 103.7815 256.5337 13.51005383 58518
QIANFAN-70              
1 62800U 25016R   26064.88784775  .00000051  00000+0  60599-4 0  9990
2 62800  88.9687  94.5013 0017574  95.4844 264.8312 13.50997099 58465
QIANFAN-71              
1 62801U 25016S   26064.88367753  .00000045  00000+0  50671-4 0  9997
2 62801  88.9681  94.4761 0017852 107.0968 253.2141 13.50996576 58466
QIANFAN-72              
1 62802U 25016T   26064.90014594  .00000024  00000+0  17843-4 0  9994
2 62802  88.9671  94.4797 0021061 113.7370 246.5994 13.50996222 58451
QIANFAN-73              
1 63159U 25046A   26064.92700091  .00000167  00000+0  24003-3 0  9992
2 63159  88.9759 311.4318 0013168 241.9360 118.0460 13.50998382 58648
QIANFAN-74              
1 63160U 25046B   26064.91060079  .00000169  00000+0  24325-3 0  9997
2 63160  88.9759 311.3223 0001901  78.5947 281.5417 13.50998224 58701
QIANFAN-75              
1 63161U 25046C   26064.89773813  .00000075  00000+0  97870-4 0  9994
2 63161  88.9762 311.5585 0014339 245.6337 114.3317 13.50998230 58572
QIANFAN-76              
1 63162U 25046D   26064.89406017  .00000207  00000+0  30126-3 0  9991
2 63162  88.9761 311.5387 0011878 246.4217 113.5687 13.51014654 58585
QIANFAN-77              
1 63163U 25046E   26064.89563821  .00000422  00000+0  29753-3 0  9992
2 63163  88.9756 308.8622 0014496 173.5153 186.6214 13.96174715 60055
QIANFAN-78              
1 63164U 25046F   26064.93523425  .00000203  00000+0  29549-3 0  9994
2 63164  88.9759 311.3977 0013207 249.0793 110.8945 13.50998619 58660
QIANFAN-79              
1 63165U 25046G   26064.89011134  .00000202  00000+0  29379-3 0  9999
2 63165  88.9764 311.5132 0013061 247.4074 112.5695 13.51008803 58607
QIANFAN-80              
1 63166U 25046H   26064.90641085  .00000166  00000+0  23932-3 0  9994
2 63166  88.9760 311.2161 0011885 252.0485 107.9371 13.50998310 58769
QIANFAN-81              
1 63167U 25046J   26064.88456711  .00000183  00000+0  26472-3 0  9993
2 63167  88.9760 311.2862 0012993 239.7778 120.2087 13.50984232 58711
QIANFAN-82              
1 63168U 25046K   26064.91879701  .00000174  00000+0  25054-3 0  9991
2 63168  88.9760 311.3267 0011019 247.5507 112.4477 13.50999651 58703
QIANFAN-83              
1 63169U 25046L   26064.93550837  .00000269  00000+0  33359-3 0  9992
2 63169  88.9760 310.9378 0012499 225.2820 134.7321 13.62021211 58926
QIANFAN-84              
1 63170U 25046M   26064.94663333 -.00000071  00000+0 -12846-3 0  9992
2 63170  88.9759 311.4559 0014055 243.9187 116.0518 13.50961297 58639
QIANFAN-85              
1 63171U 25046N   26064.94346441  .00000183  00000+0  26505-3 0  9990
2 63171  88.9759 311.3279 0011442 246.1726 113.8226 13.51002430 58704
