[{"OBJECT_NAME":"QIANFAN-69","OBJECT_ID":"2025-016Q","EPOCH":"2026-03-05T22:41:30.470784","MEAN_MOTION":13.51005383,"ECCENTRICITY":0.00179635,"INCLINATION":88.9666,"RA_OF_ASC_NODE":94.3392,"ARG_OF_PERICENTER":103.7815,"MEAN_ANOMALY":256.5337,"EPHEMERIS_TYPE":0,"CLASSIFICATION_TYPE":"U","NORAD_CAT_ID":62799,"ELEMENT_SET_NO":999,"REV_AT_EPOCH":5851,"BSTAR":7.4315245e-5,"MEAN_MOTION_DOT":6.0e-7,"MEAN_MOTION_DDOT":0},{"OBJECT_NAME":"QIANFAN-70","OBJECT_ID":"2025-016R","EPOCH":"2026-03-05T21:18:30.045600","MEAN_MOTION":13.50997099,"ECCENTRICITY":0.00175747,"INCLINATION":88.9687,"RA_OF_ASC_NODE":94.5013,"ARG_OF_PERICENTER":95.4844,"MEAN_ANOMALY":264.8312,"EPHEMERIS_TYPE":0,"CLASSIFICATION_TYPE":"U","NORAD_CAT_ID":62800,"ELEMENT_SET_NO":999,"REV_AT_EPOCH":5846,"BSTAR":6.0598999e-5,"MEAN_MOTION_DOT":5.1e-7,"MEAN_MOTION_DDOT":0},{"OBJECT_NAME":"QIANFAN-71","OBJECT_ID":"2025-016S","EPOCH":"2026-03-05T21:12:29.738592","MEAN_MOTION":13.50996576,"ECCENTRICITY":0.00178529,"INCLINATION":88.9681,"RA_OF_ASC_NODE":94.4761,"ARG_OF_PERICENTER":107.0968,"MEAN_ANOMALY":253.2141,"EPHEMERIS_TYPE":0,"CLASSIFICATION_TYPE":"U","NORAD_CAT_ID":62801,"ELEMENT_SET_NO":999,"REV_AT_EPOCH":5846,"BSTAR":5.0670734e-5,"MEAN_MOTION_DOT":4.5e-7,"MEAN_MOTION_DDOT":0},{"OBJECT_NAME":"QIANFAN-72","OBJECT_ID":"2025-016T","EPOCH":"2026-03-05T21:36:12.609216","MEAN_MOTION":13.50996222,"ECCENTRICITY":0.00210611,"INCLINATION":88.9671,"RA_OF_ASC_NODE":94.4797,"ARG_OF_PERICENTER":113.737,"MEAN_ANOMALY":246.5994,"EPHEMERIS_TYPE":0,"CLASSIFICATION_TYPE":"U","NORAD_CAT_ID":62802,"ELEMENT_SET_NO":999,"REV_AT_EPOCH":5845,"BSTAR":1.7843073e-5,"MEAN_MOTION_DOT":2.4e-7,"MEAN_MOTION_DDOT":0},{"OBJECT_NAME":"QIANFAN-73","OBJECT_ID":"2025-046A","EPOCH":"2026-03-05T22:14:52.878624","MEAN_MOTION":13.50998382,"ECCENTRICITY":0.00131684,"INCLINATION":88.9759,"RA_OF_ASC_NODE":311.4318,"ARG_OF_PERICENTER":241.936,"MEAN_ANOMALY":118.046,"EPHEMERIS_TYPE":0,"CLASSIFICATION_TYPE":"U","NORAD_CAT_ID":63159,"ELEMENT_SET_NO":999,"REV_AT_EPOCH":5864,"BSTAR":0.00024002968,"MEAN_MOTION_DOT":1.67e-6,"MEAN_MOTION_DDOT":0},{"OBJECT_NAME":"QIANFAN-74","OBJECT_ID":"2025-046B","EPOCH":"2026-03-05T21:51:15.908256","MEAN_MOTION":13.50998224,"ECCENTRICITY":0.00019013,"INCLINATION":88.9759,"RA_OF_ASC_NODE":311.3223,"ARG_OF_PERICENTER":78.5947,"MEAN_ANOMALY":281.5417,"EPHEMERIS_TYPE":0,"CLASSIFICATION_TYPE":"U","NORAD_CAT_ID":63160,"ELEMENT_SET_NO":999,"REV_AT_EPOCH":5870,"BSTAR":0.00024325447,"MEAN_MOTION_DOT":1.69e-6,"MEAN_MOTION_DDOT":0},{"OBJECT_NAME":"QIANFAN-75","OBJECT_ID":"2025-046C","EPOCH":"2026-03-05T21:32:44.574432","MEAN_MOTION":13.5099823,"ECCENTRICITY":0.00143396,"INCLINATION":88.9762,"RA_OF_ASC_NODE":311.5585,"ARG_OF_PERICENTER":245.6337,"MEAN_ANOMALY":114.3317,"EPHEMERIS_TYPE":0,"CLASSIFICATION_TYPE":"U","NORAD_CAT_ID":63161,"ELEMENT_SET_NO":999,"REV_AT_EPOCH":5857,"BSTAR":9.7869975e-5,"MEAN_MOTION_DOT":7.5e-7,"MEAN_MOTION_DDOT":0},{"OBJECT_NAME":"QIANFAN-76","OBJECT_ID":"2025-046D","EPOCH":"2026-03-05T21:27:26.798688","MEAN_MOTION":13.51014654,"ECCENTRICITY":0.00118783,"INCLINATION":88.9761,"RA_OF_ASC_NODE":311.5387,"ARG_OF_PERICENTER":246.4217,"MEAN_ANOMALY":113.5687,"EPHEMERIS_TYPE":0,"CLASSIFICATION_TYPE":"U","NORAD_CAT_ID":63162,"ELEMENT_SET_NO":999,"REV_AT_EPOCH":5858,"BSTAR":0.00030126037,"MEAN_MOTION_DOT":2.07e-6,"MEAN_MOTION_DDOT":0},{"OBJECT_NAME":"QIANFAN-77","OBJECT_ID":"2025-046E","EPOCH":"2026-03-05T21:29:43.141344","MEAN_MOTION":13.96174715,"ECCENTRICITY":0.00144963,"INCLINATION":88.9756,"RA_OF_ASC_NODE":308.8622,"ARG_OF_PERICENTER":173.5153,"MEAN_ANOMALY":186.6214,"EPHEMERIS_TYPE":0,"CLASSIFICATION_TYPE":"U","NORAD_CAT_ID":63163,"ELEMENT_SET_NO":999,"REV_AT_EPOCH":6005,"BSTAR":0.00029753485,"MEAN_MOTION_DOT":4.22e-6,"MEAN_MOTION_DDOT":0},{"OBJECT_NAME":"QIANFAN-78","OBJECT_ID":"2025-046F","EPOCH":"2026-03-05T22:26:44.239200","MEAN_MOTION":13.50998619,"ECCENTRICITY":0.00132078,"INCLINATION":88.9759,"RA_OF_ASC_NODE":311.3977,"ARG_OF_PERICENTER":249.0793,"MEAN_ANOMALY":110.8945,"EPHEMERIS_TYPE":0,"CLASSIFICATION_TYPE":"U","NORAD_CAT_ID":63164,"ELEMENT_SET_NO":999,"REV_AT_EPOCH":5866,"BSTAR":0.00029548856,"MEAN_MOTION_DOT":2.03e-6,"MEAN_MOTION_DDOT":0},{"OBJECT_NAME":"QIANFAN-79","OBJECT_ID":"2025-046G","EPOCH":"2026-03-05T21:21:45.619776","MEAN_MOTION":13.51008803,"ECCENTRICITY":0.00130614,"INCLINATION":88.9764,"RA_OF_ASC_NODE":311.5132,"ARG_OF_PERICENTER":247.4074,"MEAN_ANOMALY":112.5695,"EPHEMERIS_TYPE":0,"CLASSIFICATION_TYPE":"U","NORAD_CAT_ID":63165,"ELEMENT_SET_NO":999,"REV_AT_EPOCH":5860,"BSTAR":0.00029378674,"MEAN_MOTION_DOT":2.02e-6,"MEAN_MOTION_DDOT":0},{"OBJECT_NAME":"QIANFAN-80","OBJECT_ID":"2025-046H","EPOCH":"2026-03-05T21:45:13.897440","MEAN_MOTION":13.5099831,"ECCENTRICITY":0.00118858,"INCLINATION":88.976,"RA_OF_ASC_NODE":311.2161,"ARG_OF_PERICENTER":252.0485,"MEAN_ANOMALY":107.9371,"EPHEMERIS_TYPE":0,"CLASSIFICATION_TYPE":"U","NORAD_CAT_ID":63166,"ELEMENT_SET_NO":999,"REV_AT_EPOCH":5876,"BSTAR":0.00023932354,"MEAN_MOTION_DOT":1.66e-6,"MEAN_MOTION_DDOT":0},{"OBJECT_NAME":"QIANFAN-81","OBJECT_ID":"2025-046J","EPOCH":"2026-03-05T21:13:46.598304","MEAN_MOTION":13.50984232,"ECCENTRICITY":0.00129938,"INCLINATION":88.976,"RA_OF_ASC_NODE":311.2862,"ARG_OF_PERICENTER":239.7778,"MEAN_ANOMALY":120.2087,"EPHEMERIS_TYPE":0,"CLASSIFICATION_TYPE":"U","NORAD_CAT_ID":63167,"ELEMENT_SET_NO":999,"REV_AT_EPOCH":5871,"BSTAR":0.00026471596,"MEAN_MOTION_DOT":1.83e-6,"MEAN_MOTION_DDOT":0},{"OBJECT_NAME":"QIANFAN-82","OBJECT_ID":"2025-046K","EPOCH":"2026-03-05T22:03:04.061664","MEAN_MOTION":13.50999651,"ECCENTRICITY":0.00110195,"INCLINATION":88.976,"RA_OF_ASC_NODE":311.3267,"ARG_OF_PERICENTER":247.5507,"MEAN_ANOMALY":112.4477,"EPHEMERIS_TYPE":0,"CLASSIFICATION_TYPE":"U","NORAD_CAT_ID":63168,"ELEMENT_SET_NO":999,"REV_AT_EPOCH":5870,"BSTAR":0.00025053521,"MEAN_MOTION_DOT":1.74e-6,"MEAN_MOTION_DDOT":0},{"OBJECT_NAME":"QIANFAN-83","OBJECT_ID":"2025-046L","EPOCH":"2026-03-05T22:27:07.923168","MEAN_MOTION":13.62021211,"ECCENTRICITY":0.00124992,"INCLINATION":88.976,"RA_OF_ASC_NODE":310.9378,"ARG_OF_PERICENTER":225.282,"MEAN_ANOMALY":134.7321,"EPHEMERIS_TYPE":0,"CLASSIFICATION_TYPE":"U","NORAD_CAT_ID":63169,"ELEMENT_SET_NO":999,"REV_AT_EPOCH":5892,"BSTAR":0.00033359323,"MEAN_MOTION_DOT":2.69e-6,"MEAN_MOTION_DDOT":0},{"OBJECT_NAME":"QIANFAN-84","OBJECT_ID":"2025-046M","EPOCH":"2026-03-05T22:43:09.119712","MEAN_MOTION":13.50961297,"ECCENTRICITY":0.00140559,"INCLINATION":88.9759,"RA_OF_ASC_NODE":311.4559,"ARG_OF_PERICENTER":243.9187,"MEAN_ANOMALY":116.0518,"EPHEMERIS_TYPE":0,"CLASSIFICATION_TYPE":"U","NORAD_CAT_ID":63170,"ELEMENT_SET_NO":999,"REV_AT_EPOCH":5863,"BSTAR":-0.00012845899,"MEAN_MOTION_DOT":-7.1e-7,"MEAN_MOTION_DDOT":0},{"OBJECT_NAME":"QIANFAN-85","OBJECT_ID":"2025-046N","EPOCH":"2026-03-05T22:38:35.325024","MEAN_MOTION":13.5100243,"ECCENTRICITY":0.00114429,"INCLINATION":88.9759,"RA_OF_ASC_NODE":311.3279,"ARG_OF_PERICENTER":246.1726,"MEAN_ANOMALY":113.8226,"EPHEMERIS_TYPE":0,"CLASSIFICATION_TYPE":"U","NORAD_CAT_ID":63171,"ELEMENT_SET_NO":999,"REV_AT_EPOCH":5870,"BSTAR":0.00026504881,"MEAN_MOTION_DOT":1.83e-6,"MEAN_MOTION_DDOT":0}]
